[{"OBJECT_NAME":"STARLINK-33823","OBJECT_ID":"2025-083AD","EPOCH":"2026-03-09T03:41:28.208544","MEAN_MOTION":15.27578959,"ECCENTRICITY":0.00016431,"INCLINATION":43.0046,"RA_OF_ASC_NODE":8.3424,"ARG_OF_PERICENTER":278.9634,"MEAN_ANOMALY":81.1032,"EPHEMERIS_TYPE":0,"CLASSIFICATION_TYPE":"U","NORAD_CAT_ID":63661,"ELEMENT_SET_NO":999,"REV_AT_EPOCH":5001,"BSTAR":0.0011033477,"MEAN_MOTION_DOT":0.00030223,"MEAN_MOTION_DDOT":0},{"OBJECT_NAME":"ARIANE 44LP DEB","OBJECT_ID":"1988-109H","EPOCH":"2026-03-09T11:59:25.314720","MEAN_MOTION":2.41357073,"ECCENTRICITY":0.70801802,"INCLINATION":6.6357,"RA_OF_ASC_NODE":201.3327,"ARG_OF_PERICENTER":124.6577,"MEAN_ANOMALY":322.7966,"EPHEMERIS_TYPE":0,"CLASSIFICATION_TYPE":"U","NORAD_CAT_ID":25541,"ELEMENT_SET_NO":999,"REV_AT_EPOCH":23504,"BSTAR":0.0077818938,"MEAN_MOTION_DOT":1.373e-5,"MEAN_MOTION_DDOT":0}]
